CCSDS_OMM_VERS = 2.0
CREATION_DATE  = 
ORIGINATOR     = 

OBJECT_NAME    = KUIPER-00146
OBJECT_ID      = 2025-228W
CENTER_NAME    = EARTH
REF_FRAME      = TEME
TIME_SYSTEM    = UTC
MEAN_ELEMENT_THEORY = SGP/SGP4

EPOCH          = 2025-10-27T21:16:16.741632
MEAN_MOTION    = 15.34489719
ECCENTRICITY   = .00056968
INCLINATION    = 51.8805
RA_OF_ASC_NODE = 241.4787
ARG_OF_PERICENTER = 187.8348
MEAN_ANOMALY   = 172.2549

EPHEMERIS_TYPE = 0
CLASSIFICATION_TYPE = U
NORAD_CAT_ID   = 65967
ELEMENT_SET_NO = 999
REV_AT_EPOCH   = 337
BSTAR          = .49995045E-3
MEAN_MOTION_DOT = .16621E-3
MEAN_MOTION_DDOT = 0

CCSDS_OMM_VERS = 2.0
CREATION_DATE  = 
ORIGINATOR     = 

OBJECT_NAME    = KUIPER-00149
OBJECT_ID      = 2025-228X
CENTER_NAME    = EARTH
REF_FRAME      = TEME
TIME_SYSTEM    = UTC
MEAN_ELEMENT_THEORY = SGP/SGP4

EPOCH          = 2025-10-27T21:13:51.609504
MEAN_MOTION    = 15.34686848
ECCENTRICITY   = .00057064
INCLINATION    = 51.8800
RA_OF_ASC_NODE = 241.4624
ARG_OF_PERICENTER = 185.6043
MEAN_ANOMALY   = 174.4880

EPHEMERIS_TYPE = 0
CLASSIFICATION_TYPE = U
NORAD_CAT_ID   = 65968
ELEMENT_SET_NO = 999
REV_AT_EPOCH   = 337
BSTAR          = .96432219E-3
MEAN_MOTION_DOT = .32688E-3
MEAN_MOTION_DDOT = 0

CCSDS_OMM_VERS = 2.0
CREATION_DATE  = 
ORIGINATOR     = 

OBJECT_NAME    = KUIPER-00154
OBJECT_ID      = 2025-228Y
CENTER_NAME    = EARTH
REF_FRAME      = TEME
TIME_SYSTEM    = UTC
MEAN_ELEMENT_THEORY = SGP/SGP4

EPOCH          = 2025-10-27T21:12:57.472128
MEAN_MOTION    = 15.34751015
ECCENTRICITY   = .00058998
INCLINATION    = 51.8798
RA_OF_ASC_NODE = 241.4586
ARG_OF_PERICENTER = 182.9309
MEAN_ANOMALY   = 177.1643

EPHEMERIS_TYPE = 0
CLASSIFICATION_TYPE = U
NORAD_CAT_ID   = 65969
ELEMENT_SET_NO = 999
REV_AT_EPOCH   = 337
BSTAR          = .86370808E-3
MEAN_MOTION_DOT = .29286E-3
MEAN_MOTION_DDOT = 0

CCSDS_OMM_VERS = 2.0
CREATION_DATE  = 
ORIGINATOR     = 

OBJECT_NAME    = KUIPER-00157
OBJECT_ID      = 2025-228Z
CENTER_NAME    = EARTH
REF_FRAME      = TEME
TIME_SYSTEM    = UTC
MEAN_ELEMENT_THEORY = SGP/SGP4

EPOCH          = 2025-10-27T21:19:27.192288
MEAN_MOTION    = 15.34290135
ECCENTRICITY   = .00057669
INCLINATION    = 51.8807
RA_OF_ASC_NODE = 241.4928
ARG_OF_PERICENTER = 200.0102
MEAN_ANOMALY   = 160.0659

EPHEMERIS_TYPE = 0
CLASSIFICATION_TYPE = U
NORAD_CAT_ID   = 65970
ELEMENT_SET_NO = 999
REV_AT_EPOCH   = 337
BSTAR          = .53856401E-3
MEAN_MOTION_DOT = .17822E-3
MEAN_MOTION_DDOT = 0

CCSDS_OMM_VERS = 2.0
CREATION_DATE  = 
ORIGINATOR     = 

OBJECT_NAME    = STRIX-5
OBJECT_ID      = 2025-229A
CENTER_NAME    = EARTH
REF_FRAME      = TEME
TIME_SYSTEM    = UTC
MEAN_ELEMENT_THEORY = SGP/SGP4

EPOCH          = 2025-10-24T06:59:29.826816
MEAN_MOTION    = 15.01617112
ECCENTRICITY   = .00408282
INCLINATION    = 41.9263
RA_OF_ASC_NODE = 152.9596
ARG_OF_PERICENTER = 308.1192
MEAN_ANOMALY   = 51.5956

EPHEMERIS_TYPE = 0
CLASSIFICATION_TYPE = U
NORAD_CAT_ID   = 65971
ELEMENT_SET_NO = 999
REV_AT_EPOCH   = 147
BSTAR          = .53273724E-3
MEAN_MOTION_DOT = .6967E-4
MEAN_MOTION_DDOT = 0

CCSDS_OMM_VERS = 2.0
CREATION_DATE  = 
ORIGINATOR     = 

OBJECT_NAME    = ELECTRON R/B
OBJECT_ID      = 2025-229B
CENTER_NAME    = EARTH
REF_FRAME      = TEME
TIME_SYSTEM    = UTC
MEAN_ELEMENT_THEORY = SGP/SGP4

EPOCH          = 2025-10-27T21:11:37.025088
MEAN_MOTION    = 15.01655838
ECCENTRICITY   = .00402357
INCLINATION    = 41.9267
RA_OF_ASC_NODE = 133.1287
ARG_OF_PERICENTER = 331.0420
MEAN_ANOMALY   = 28.8173

EPHEMERIS_TYPE = 0
CLASSIFICATION_TYPE = U
NORAD_CAT_ID   = 65972
ELEMENT_SET_NO = 999
REV_AT_EPOCH   = 199
BSTAR          = .43339801E-3
MEAN_MOTION_DOT = .5633E-4
MEAN_MOTION_DDOT = 0

CCSDS_OMM_VERS = 2.0
CREATION_DATE  = 
ORIGINATOR     = 

OBJECT_NAME    = ELECTRON KICK STAGE R/B
OBJECT_ID      = 2025-229C
CENTER_NAME    = EARTH
REF_FRAME      = TEME
TIME_SYSTEM    = UTC
MEAN_ELEMENT_THEORY = SGP/SGP4

EPOCH          = 2025-10-27T21:01:07.258944
MEAN_MOTION    = 15.02509862
ECCENTRICITY   = .00412702
INCLINATION    = 41.9822
RA_OF_ASC_NODE = 133.1518
ARG_OF_PERICENTER = 331.1365
MEAN_ANOMALY   = 28.7179

EPHEMERIS_TYPE = 0
CLASSIFICATION_TYPE = U
NORAD_CAT_ID   = 65973
ELEMENT_SET_NO = 999
REV_AT_EPOCH   = 198
BSTAR          = .5619393E-3
MEAN_MOTION_DOT = .7542E-4
MEAN_MOTION_DDOT = 0

CCSDS_OMM_VERS = 2.0
CREATION_DATE  = 
ORIGINATOR     = 

OBJECT_NAME    = HULIANWANG DIGUI 12A
OBJECT_ID      = 2025-231A
CENTER_NAME    = EARTH
REF_FRAME      = TEME
TIME_SYSTEM    = UTC
MEAN_ELEMENT_THEORY = SGP/SGP4

EPOCH          = 2025-10-27T15:07:58.935936
MEAN_MOTION    = 14.03845194
ECCENTRICITY   = .00064184
INCLINATION    = 50.0009
RA_OF_ASC_NODE = 310.6285
ARG_OF_PERICENTER = 293.6377
MEAN_ANOMALY   = 66.3853

EPHEMERIS_TYPE = 0
CLASSIFICATION_TYPE = U
NORAD_CAT_ID   = 65995
ELEMENT_SET_NO = 999
REV_AT_EPOCH   = 163
BSTAR          = .13231515E-3
MEAN_MOTION_DOT = .58E-6
MEAN_MOTION_DDOT = 0

CCSDS_OMM_VERS = 2.0
CREATION_DATE  = 
ORIGINATOR     = 

OBJECT_NAME    = HULIANWANG DIGUI 12B
OBJECT_ID      = 2025-231B
CENTER_NAME    = EARTH
REF_FRAME      = TEME
TIME_SYSTEM    = UTC
MEAN_ELEMENT_THEORY = SGP/SGP4

EPOCH          = 2025-10-27T16:54:42.828768
MEAN_MOTION    = 14.03876331
ECCENTRICITY   = .00089927
INCLINATION    = 49.9998
RA_OF_ASC_NODE = 310.3531
ARG_OF_PERICENTER = 299.3759
MEAN_ANOMALY   = 60.6247

EPHEMERIS_TYPE = 0
CLASSIFICATION_TYPE = U
NORAD_CAT_ID   = 65996
ELEMENT_SET_NO = 999
REV_AT_EPOCH   = 164
BSTAR          = .15373256E-3
MEAN_MOTION_DOT = .93E-6
MEAN_MOTION_DDOT = 0

CCSDS_OMM_VERS = 2.0
CREATION_DATE  = 
ORIGINATOR     = 

OBJECT_NAME    = HULIANWANG DIGUI 12C
OBJECT_ID      = 2025-231C
CENTER_NAME    = EARTH
REF_FRAME      = TEME
TIME_SYSTEM    = UTC
MEAN_ELEMENT_THEORY = SGP/SGP4

EPOCH          = 2025-10-27T16:49:04.605600
MEAN_MOTION    = 14.03879853
ECCENTRICITY   = .00075368
INCLINATION    = 49.9975
RA_OF_ASC_NODE = 310.3283
ARG_OF_PERICENTER = 298.7638
MEAN_ANOMALY   = 61.2509

EPHEMERIS_TYPE = 0
CLASSIFICATION_TYPE = U
NORAD_CAT_ID   = 65997
ELEMENT_SET_NO = 999
REV_AT_EPOCH   = 164
BSTAR          = .1677329E-3
MEAN_MOTION_DOT = .115E-5
MEAN_MOTION_DDOT = 0

CCSDS_OMM_VERS = 2.0
CREATION_DATE  = 
ORIGINATOR     = 

OBJECT_NAME    = HULIANWANG DIGUI 12D
OBJECT_ID      = 2025-231D
CENTER_NAME    = EARTH
REF_FRAME      = TEME
TIME_SYSTEM    = UTC
MEAN_ELEMENT_THEORY = SGP/SGP4

EPOCH          = 2025-10-27T13:22:15.729600
MEAN_MOTION    = 14.04581753
ECCENTRICITY   = .00066397
INCLINATION    = 50.0000
RA_OF_ASC_NODE = 310.9063
ARG_OF_PERICENTER = 304.2879
MEAN_ANOMALY   = 55.7397

EPHEMERIS_TYPE = 0
CLASSIFICATION_TYPE = U
NORAD_CAT_ID   = 65998
ELEMENT_SET_NO = 999
REV_AT_EPOCH   = 162
BSTAR          = .18704704E-3
MEAN_MOTION_DOT = .149E-5
MEAN_MOTION_DDOT = 0

CCSDS_OMM_VERS = 2.0
CREATION_DATE  = 
ORIGINATOR     = 

OBJECT_NAME    = HULIANWANG DIGUI 12E
OBJECT_ID      = 2025-231E
CENTER_NAME    = EARTH
REF_FRAME      = TEME
TIME_SYSTEM    = UTC
MEAN_ELEMENT_THEORY = SGP/SGP4

EPOCH          = 2025-10-27T23:36:16.122816
MEAN_MOTION    = 14.03085816
ECCENTRICITY   = .0055588
INCLINATION    = 50.1292
RA_OF_ASC_NODE = 309.2537
ARG_OF_PERICENTER = 305.8716
MEAN_ANOMALY   = 53.7036

EPHEMERIS_TYPE = 0
CLASSIFICATION_TYPE = U
NORAD_CAT_ID   = 65999
ELEMENT_SET_NO = 999
REV_AT_EPOCH   = 168
BSTAR          = .22976E-3
MEAN_MOTION_DOT = .213E-5
MEAN_MOTION_DDOT = 0

